{
    "links": {
        "self": "http://www.neowsapp.com/rest/v1/neo/3780778?api_key=iIulBulltgU6a56xZRHN4H3l9WmuAYTsLGpBGhQ2"
    },
    "id": "3780778",
    "neo_reference_id": "3780778",
    "name": "(2017 QJ2)",
    "designation": "2017 QJ2",
    "nasa_jpl_url": "http://ssd.jpl.nasa.gov/sbdb.cgi?sstr=3780778",
    "absolute_magnitude_h": 26.1,
    "estimated_diameter": {
        "kilometers": {
            "estimated_diameter_min": 0.0160160338,
            "estimated_diameter_max": 0.0358129403
        },
        "meters": {
            "estimated_diameter_min": 16.0160337979,
            "estimated_diameter_max": 35.8129403019
        },
        "miles": {
            "estimated_diameter_min": 0.0099518989,
            "estimated_diameter_max": 0.0222531225
        },
        "feet": {
            "estimated_diameter_min": 52.5460443254,
            "estimated_diameter_max": 117.4965270602
        }
    },
    "is_potentially_hazardous_asteroid": false,
    "close_approach_data": [
        {
            "close_approach_date": "2017-08-25",
            "close_approach_date_full": "2017-Aug-25 02:13",
            "epoch_date_close_approach": 1503627180000,
            "relative_velocity": {
                "kilometers_per_second": "18.5291748791",
                "kilometers_per_hour": "66705.0295647866",
                "miles_per_hour": "41447.9112870753"
            },
            "miss_distance": {
                "astronomical": "0.0214960043",
                "lunar": "8.3619456727",
                "kilometers": "3215756.456790841",
                "miles": "1998178.4054859658"
            },
            "orbiting_body": "Earth"
        }
    ],
    "orbital_data": {
        "orbit_id": "4",
        "orbit_determination_date": "2019-12-18 11:40:27",
        "first_observation_date": "2017-08-17",
        "last_observation_date": "2017-08-20",
        "data_arc_in_days": 3,
        "observations_used": 9,
        "orbit_uncertainty": "9",
        "minimum_orbit_intersection": ".00148408",
        "jupiter_tisserand_invariant": "3.743",
        "epoch_osculation": "2457983.5",
        "eccentricity": ".659273477369631",
        "semi_major_axis": "1.8222273625964",
        "inclination": "4.385578502801693",
        "ascending_node_longitude": "144.3561217618785",
        "orbital_period": "898.4672938093612",
        "perihelion_distance": ".6208811926993797",
        "perihelion_argument": "274.7658165565624",
        "aphelion_distance": "3.02357353249342",
        "perihelion_time": "2458039.695550051813",
        "mean_anomaly": "337.4834341126888",
        "mean_motion": ".4006823648233829",
        "equinox": "J2000",
        "orbit_class": {
            "orbit_class_type": "APO",
            "orbit_class_description": "Near-Earth asteroid orbits which cross the Earth’s orbit similar to that of 1862 Apollo",
            "orbit_class_range": "a (semi-major axis) > 1.0 AU; q (perihelion) < 1.017 AU"
        }
    },
    "is_sentry_object": false
}